ALOS (DAICHI)           
1 28931U 06002A   25351.73419158  .00001110  00000+0  19545-3 0  9994
2 28931  98.1098 303.1864 0001361 113.5739 246.5610 14.69501788 61443
H-2A R/B                
1 28932U 06002B   25365.34782838  .00015382  00000+0  79680-3 0  9997
2 28932  98.2316 141.6227 0054696 113.6129 247.0857 15.14983796 84087
RESURS-DK 1             
1 29228U 06021A   25365.48384875  .00004887  00000+0  28768-3 0  9990
2 29228  69.9348  53.3926 0007010 242.8435 117.2017 15.12282737 77212
CZ-4B R/B               
1 29507U 06046C   25365.38299257  .00008320  00000+0  42901-3 0  9996
2 29507  97.5718  45.4710 0034771 142.1584 218.2103 15.16083085 49692
CZ-2C R/B               
1 31114U 07010B   25365.31814925  .00000275  00000+0  14493-3 0  9999
2 31114  98.3975 117.0342 0059836 132.3993 228.2270 14.20218462970012
COSMO-SKYMED 1          
1 31598U 07023A   25365.51837063  .00006699  00000+0  60340-3 0  9997
2 31598  97.8830 191.0421 0001087  86.7430 273.3915 14.95923153  4719
COSMOS 2428             
1 31792U 07029A   25365.35815147  .00000353  00000+0  21507-3 0  9993
2 31792  70.9376 346.7879 0004742 357.6827   2.4271 14.12899218954442
SL-16 R/B               
1 31793U 07029B   25365.34778330  .00000261  00000+0  16005-3 0  9990
2 31793  70.9772 316.0414 0001994 269.1563 205.5053 14.14823467955707
KORONAS-FOTON           
1 33504U 09003A   25365.45112433  .00013512  00000+0  31964-3 0  9998
2 33504  82.4306 346.7108 0012898  50.6577 309.5810 15.41577854935221
CZ-2C R/B               
1 37731U 11030B   25365.45469551  .00002577  00000+0  33225-3 0  9994
2 37731  97.8429 319.1500 0051907 211.1446 263.0327 14.80966391779993
H-2A R/B                
1 38341U 12025E   25365.45341505  .00004926  00000+0  45254-3 0  9990
2 38341  98.4622 322.1306 0044894 173.9331 186.2441 14.94582455738028
SHIJIAN-16 (SJ-16)      
1 39358U 13057A   25365.51145829  .00002062  00000+0  20534-3 0  9996
2 39358  74.9737 314.1333 0017979 276.4204  83.4937 14.92061943661335
